{
  "type": "FeatureCollection",
  "features": [
    {
      "type": "Feature",
      "properties": {
        "norad_id": 36180,
        "name": "FENGYUN 1C DEB",
        "group": "fengyun-1c-debris",
        "lat": -40.31794401367997,
        "lon": 65.67951777994351,
        "alt_km": 724.5502179636369,
        "timestamp": "2025-12-21T03:56:51.123088+00:00",
        "meta_object_name": "FENGYUN 1C DEB",
        "meta_object_id": "1999-025DTD",
        "meta_epoch": "2025-12-05T21:21:22.276224",
        "meta_mean_motion": 14.20680074,
        "meta_eccentricity": 0.02106275,
        "meta_inclination": 98.4572,
        "meta_ra_of_asc_node": 43.7979,
        "meta_arg_of_pericenter": 50.8055,
        "meta_mean_anomaly": 311.1621,
        "meta_ephemeris_type": 0,
        "meta_classification_type": "U",
        "meta_norad_cat_id": 36180,
        "meta_element_set_no": 999,
        "meta_rev_at_epoch": 70486,
        "meta_bstar": 0.00091841135,
        "meta_mean_motion_dot": 2.432e-05,
        "meta_mean_motion_ddot": 0,
        "tle_line1": "1 36180U 99025DTD 25339.88984116  .00002432  00000+0  91841-3 0  9996",
        "tle_line2": "2 36180  98.4572  43.7979 0210627  50.8055 311.1621 14.20680074704867"
      },
      "geometry": {
        "type": "Point",
        "coordinates": [
          65.67951777994351,
          -40.31794401367997
        ]
      }
    },
    {
      "type": "Feature",
      "properties": {
        "norad_id": 36182,
        "name": "FENGYUN 1C DEB",
        "group": "fengyun-1c-debris",
        "lat": -79.13771068561844,
        "lon": 46.61348308334428,
        "alt_km": 796.595835642248,
        "timestamp": "2025-12-21T03:56:51.123097+00:00",
        "meta_object_name": "FENGYUN 1C DEB",
        "meta_object_id": "1999-025DTF",
        "meta_epoch": "2025-12-18T12:47:41.466912",
        "meta_mean_motion": 14.34767682,
        "meta_eccentricity": 0.00222454,
        "meta_inclination": 99.0894,
        "meta_ra_of_asc_node": 280.3871,
        "meta_arg_of_pericenter": 59.8208,
        "meta_mean_anomaly": 300.5175,
        "meta_ephemeris_type": 0,
        "meta_classification_type": "U",
        "meta_norad_cat_id": 36182,
        "meta_element_set_no": 999,
        "meta_rev_at_epoch": 88040,
        "meta_bstar": 0.0011472188,
        "meta_mean_motion_dot": 3.214e-05,
        "meta_mean_motion_ddot": 0,
        "tle_line1": "1 36182U 99025DTF 25352.53311883  .00003214  00000+0  11472-2 0  9990",
        "tle_line2": "2 36182  99.0894 280.3871 0022245  59.8208 300.5175 14.34767682880406"
      },
      "geometry": {
        "type": "Point",
        "coordinates": [
          46.61348308334428,
          -79.13771068561844
        ]
      }
    },
    {
      "type": "Feature",
      "properties": {
        "norad_id": 36186,
        "name": "FENGYUN 1C DEB",
        "group": "fengyun-1c-debris",
        "lat": -21.527703030644417,
        "lon": -136.44546924738643,
        "alt_km": 521.3072333718892,
        "timestamp": "2025-12-21T03:56:51.123106+00:00",
        "meta_object_name": "FENGYUN 1C DEB",
        "meta_object_id": "1999-025DTK",
        "meta_epoch": "2025-12-15T21:11:23.031744",
        "meta_mean_motion": 15.12863238,
        "meta_eccentricity": 0.00117449,
        "meta_inclination": 98.9868,
        "meta_ra_of_asc_node": 213.7545,
        "meta_arg_of_pericenter": 332.6772,
        "meta_mean_anomaly": 45.2682,
        "meta_ephemeris_type": 0,
        "meta_classification_type": "U",
        "meta_norad_cat_id": 36186,
        "meta_element_set_no": 999,
        "meta_rev_at_epoch": 61618,
        "meta_bstar": 0.0071053274,
        "meta_mean_motion_dot": 0.00127217,
        "meta_mean_motion_ddot": 0,
        "tle_line1": "1 36186U 99025DTK 25349.88290546  .00127217  00000+0  71053-2 0  9991",
        "tle_line2": "2 36186  98.9868 213.7545 0011744 332.6772  45.2682 15.12863238616186"
      },
      "geometry": {
        "type": "Point",
        "coordinates": [
          -136.44546924738643,
          -21.527703030644417
        ]
      }
    },
    {
      "type": "Feature",
      "properties": {
        "norad_id": 36188,
        "name": "FENGYUN 1C DEB",
        "group": "fengyun-1c-debris",
        "lat": 36.91640665453999,
        "lon": 89.37709459677673,
        "alt_km": 704.0592836081787,
        "timestamp": "2025-12-21T03:56:51.123116+00:00",
        "meta_object_name": "FENGYUN 1C DEB",
        "meta_object_id": "1999-025DTM",
        "meta_epoch": "2025-12-16T00:29:05.104608",
        "meta_mean_motion": 14.60761478,
        "meta_eccentricity": 0.00478894,
        "meta_inclination": 98.5849,
        "meta_ra_of_asc_node": 90.5626,
        "meta_arg_of_pericenter": 294.3883,
        "meta_mean_anomaly": 65.2322,
        "meta_ephemeris_type": 0,
        "meta_classification_type": "U",
        "meta_norad_cat_id": 36188,
        "meta_element_set_no": 999,
        "meta_rev_at_epoch": 88100,
        "meta_bstar": 0.0017582447,
        "meta_mean_motion_dot": 8.674e-05,
        "meta_mean_motion_ddot": 0,
        "tle_line1": "1 36188U 99025DTM 25350.02019797  .00008674  00000+0  17582-2 0  9990",
        "tle_line2": "2 36188  98.5849  90.5626 0047889 294.3883  65.2322 14.60761478881003"
      },
      "geometry": {
        "type": "Point",
        "coordinates": [
          89.37709459677673,
          36.91640665453999
        ]
      }
    },
    {
      "type": "Feature",
      "properties": {
        "norad_id": 36198,
        "name": "FENGYUN 1C DEB",
        "group": "fengyun-1c-debris",
        "lat": -42.135603615639404,
        "lon": 32.02236815678916,
        "alt_km": 921.6020823770186,
        "timestamp": "2025-12-21T03:56:51.123125+00:00",
        "meta_object_name": "FENGYUN 1C DEB",
        "meta_object_id": "1999-025DTX",
        "meta_epoch": "2025-12-17T13:10:00.796512",
        "meta_mean_motion": 14.07925497,
        "meta_eccentricity": 0.00967795,
        "meta_inclination": 98.6216,
        "meta_ra_of_asc_node": 20.6795,
        "meta_arg_of_pericenter": 101.8825,
        "meta_mean_anomaly": 259.3217,
        "meta_ephemeris_type": 0,
        "meta_classification_type": "U",
        "meta_norad_cat_id": 36198,
        "meta_element_set_no": 999,
        "meta_rev_at_epoch": 63655,
        "meta_bstar": 0.0010670002,
        "meta_mean_motion_dot": 1.851e-05,
        "meta_mean_motion_ddot": 0,
        "tle_line1": "1 36198U 99025DTX 25351.54862033  .00001851  00000+0  10670-2 0  9999",
        "tle_line2": "2 36198  98.6216  20.6795 0096779 101.8825 259.3217 14.07925497636555"
      },
      "geometry": {
        "type": "Point",
        "coordinates": [
          32.02236815678916,
          -42.135603615639404
        ]
      }
    },
    {
      "type": "Feature",
      "properties": {
        "norad_id": 36199,
        "name": "FENGYUN 1C DEB",
        "group": "fengyun-1c-debris",
        "lat": 70.38282210297614,
        "lon": -139.95749939940677,
        "alt_km": 757.4650380325793,
        "timestamp": "2025-12-21T03:56:51.123134+00:00",
        "meta_object_name": "FENGYUN 1C DEB",
        "meta_object_id": "1999-025DTY",
        "meta_epoch": "2025-12-20T00:34:41.172960",
        "meta_mean_motion": 14.29659368,
        "meta_eccentricity": 0.00926521,
        "meta_inclination": 98.2889,
        "meta_ra_of_asc_node": 14.8143,
        "meta_arg_of_pericenter": 46.1703,
        "meta_mean_anomaly": 314.7092,
        "meta_ephemeris_type": 0,
        "meta_classification_type": "U",
        "meta_norad_cat_id": 36199,
        "meta_element_set_no": 999,
        "meta_rev_at_epoch": 65084,
        "meta_bstar": 0.0001914598,
        "meta_mean_motion_dot": 4.73e-06,
        "meta_mean_motion_ddot": 0,
        "tle_line1": "1 36199U 99025DTY 25354.02408765  .00000473  00000+0  19146-3 0  9991",
        "tle_line2": "2 36199  98.2889  14.8143 0092652  46.1703 314.7092 14.29659368650842"
      },
      "geometry": {
        "type": "Point",
        "coordinates": [
          -139.95749939940677,
          70.38282210297614
        ]
      }
    },
    {
      "type": "Feature",
      "properties": {
        "norad_id": 36200,
        "name": "FENGYUN 1C DEB",
        "group": "fengyun-1c-debris",
        "lat": 56.99588617917551,
        "lon": 55.45209989877907,
        "alt_km": 685.6004846212072,
        "timestamp": "2025-12-21T03:56:51.123144+00:00",
        "meta_object_name": "FENGYUN 1C DEB",
        "meta_object_id": "1999-025DTZ",
        "meta_epoch": "2025-12-18T11:29:22.430976",
        "meta_mean_motion": 14.58881296,
        "meta_eccentricity": 0.0033465,
        "meta_inclination": 99.3865,
        "meta_ra_of_asc_node": 67.1748,
        "meta_arg_of_pericenter": 349.3047,
        "meta_mean_anomaly": 10.7433,
        "meta_ephemeris_type": 0,
        "meta_classification_type": "U",
        "meta_norad_cat_id": 36200,
        "meta_element_set_no": 999,
        "meta_rev_at_epoch": 73444,
        "meta_bstar": 0.0036002477,
        "meta_mean_motion_dot": 0.00016973,
        "meta_mean_motion_ddot": 0,
        "tle_line1": "1 36200U 99025DTZ 25352.47873184  .00016973  00000+0  36002-2 0  9993",
        "tle_line2": "2 36200  99.3865  67.1748 0033465 349.3047  10.7433 14.58881296734449"
      },
      "geometry": {
        "type": "Point",
        "coordinates": [
          55.45209989877907,
          56.99588617917551
        ]
      }
    }
  ]
}